{
"type": "FeatureCollection",
"name": "ETYS boundary GIS data Mar25",
"features": [
{ "type": "Feature", "properties": { "Boundary_n": "B8", "ID": "BND003" }, "geometry": { "type": "LineString", "coordinates": [ [ -5.2624512, 52.1958233 ], [ -4.9195323, 52.2104704 ], [ -4.8490301, 52.2165526 ], [ -4.7032826, 52.230175 ], [ -4.5868586, 52.2430322 ], [ -4.4289546, 52.2580566 ], [ -4.3025333, 52.2693314 ], [ -4.1905296, 52.2787272 ], [ -4.0321156, 52.2946643 ], [ -3.8935804, 52.3086928 ], [ -3.7572339, 52.3239655 ], [ -3.6287855, 52.3554977 ], [ -3.4612579, 52.4114765 ], [ -3.3321257, 52.4684795 ], [ -3.2341661, 52.5254056 ], [ -3.1552516, 52.5732525 ], [ -3.0762834, 52.6178266 ], [ -3.0189319, 52.6687818 ], [ -2.9486001, 52.7200772 ], [ -2.8703964, 52.7868246 ], [ -2.8272019, 52.8303563 ], [ -2.7293303, 52.9106713 ], [ -2.7269608, 52.9136747 ], [ -2.7075876, 52.9272349 ], [ -2.7004065, 52.9347566 ], [ -2.6932741, 52.9437806 ], [ -2.6599514, 52.9889496 ], [ -2.6429832, 53.0040522 ], [ -2.6285724, 53.0206748 ], [ -2.6092034, 53.0388463 ], [ -2.5897898, 53.0570357 ], [ -2.5702863, 53.0737309 ], [ -2.5506601, 53.0874152 ], [ -2.5234552, 53.101118 ], [ -2.4887921, 53.1193916 ], [ -2.4538119, 53.1270498 ], [ -2.4137062, 53.1316682 ], [ -2.3610099, 53.1362809 ], [ -2.2982358, 53.1408695 ], [ -2.2404641, 53.1454153 ], [ -2.1751813, 53.1499913 ], [ -2.109823, 53.1529415 ], [ -2.0419385, 53.1542784 ], [ -1.98163, 53.1556328 ], [ -1.9238484, 53.1569929 ], [ -1.86858, 53.1569064 ], [ -1.8183143, 53.1582964 ], [ -1.7629719, 53.1626736 ], [ -1.7151608, 53.1625989 ], [ -1.6799106, 53.1625365 ], [ -1.6372724, 53.157781 ], [ -1.6020471, 53.1561795 ], [ -1.5719812, 53.1514891 ], [ -1.549395, 53.1498606 ], [ -1.5243454, 53.1481753 ], [ -1.4943799, 53.1434144 ], [ -1.4516487, 53.1402155 ], [ -1.4138657, 53.1400457 ], [ -1.3811136, 53.1413719 ], [ -1.3406398, 53.1471905 ], [ -1.305174, 53.1530279 ], [ -1.2721202, 53.160407 ], [ -1.241395, 53.1708538 ], [ -1.2080104, 53.1828193 ], [ -1.1770895, 53.1948113 ], [ -1.1486489, 53.2068262 ], [ -1.1276873, 53.2204262 ], [ -1.1142933, 53.2340967 ], [ -1.1061966, 53.2432238 ], [ -1.0952909, 53.2536072 ], [ -1.0517773, 53.3150733 ], [ -1.0447482, 53.32344 ], [ -1.0359358, 53.3317951 ], [ -1.0288896, 53.3401736 ], [ -1.011211, 53.3569122 ], [ -0.9934895, 53.3747312 ], [ -0.972156, 53.3893548 ], [ -0.9525646, 53.3997614 ], [ -0.9329456, 53.4112385 ], [ -0.9186558, 53.420657 ], [ -0.8989883, 53.4310846 ], [ -0.8721321, 53.4435683 ], [ -0.8470176, 53.4560805 ], [ -0.8236581, 53.4686234 ], [ -0.8038906, 53.476943 ], [ -0.78951, 53.4821186 ], [ -0.7751143, 53.4872945 ], [ -0.7589027, 53.4935205 ], [ -0.7373016, 53.4996787 ], [ -0.7048958, 53.5056891 ], [ -0.6689602, 53.5084371 ], [ -0.6348822, 53.5079872 ], [ -0.6008008, 53.5075199 ], [ -0.5649362, 53.5059283 ], [ -0.5238472, 53.5021723 ], [ -0.4738135, 53.497171 ], [ -0.4345422, 53.4922932 ], [ -0.3935926, 53.4852352 ], [ -0.3634694, 53.4772815 ], [ -0.3403451, 53.4736907 ], [ -0.3154951, 53.4689763 ], [ -0.2905253, 53.4674983 ], [ -0.2637723, 53.4660028 ], [ -0.2405373, 53.4656423 ], [ -0.2172459, 53.4663392 ], [ -0.1885855, 53.4669409 ], [ -0.1635014, 53.4675851 ], [ -0.1384244, 53.4682142 ], [ -0.1078794, 53.4698481 ], [ -0.0753965, 53.4735825 ], [ -0.0392618, 53.4782976 ], [ -0.0121233, 53.4820972 ], [ 0.0186114, 53.4858237 ], [ 0.0476461, 53.4906488 ], [ 0.0802131, 53.4943283 ], [ 0.123725, 53.4999397 ], [ 0.1691656, 53.5065746 ], [ 0.2091825, 53.5122436 ], [ 0.2419681, 53.5169692 ], [ 0.2767563, 53.5237985 ], [ 0.3078955, 53.5296256 ], [ 0.3462753, 53.5353017 ], [ 0.3847968, 53.5420452 ], [ 0.4251671, 53.5487457 ], [ 0.4582656, 53.5545182 ], [ 0.4969318, 53.5612476 ], [ 0.5322562, 53.5702103 ], [ 0.5674132, 53.5770134 ], [ 0.600803, 53.5838565 ], [ 0.6435416, 53.5926535 ], [ 0.680785, 53.6004871 ], [ 0.721582, 53.6071578 ], [ 0.757133, 53.6150267 ], [ 0.7963813, 53.6228113 ], [ 0.8134201, 53.6278562 ], [ 0.8170611, 53.6277682 ], [ 0.942443, 53.6498408 ], [ 1.0821533, 53.685322 ] ] } },
{ "type": "Feature", "properties": { "Boundary_n": "B9", "ID": "BND004" }, "geometry": { "type": "LineString", "coordinates": [ [ 1.5867698, 53.6344221 ], [ 1.4714398, 53.6231895 ], [ 1.4467058, 53.620894 ], [ 1.4171331, 53.6187209 ], [ 1.3798528, 53.6137998 ], [ 1.3232544, 53.6093692 ], [ 1.2788262, 53.6046191 ], [ 1.2219549, 53.5972314 ], [ 1.1533261, 53.5916034 ], [ 1.0872151, 53.5858831 ], [ 1.0332412, 53.5798522 ], [ 0.9865721, 53.5736463 ], [ 0.9471688, 53.5672516 ], [ 0.9000713, 53.5566551 ], [ 0.8575198, 53.5430337 ], [ 0.8147252, 53.5265145 ], [ 0.7694831, 53.5086126 ], [ 0.7218144, 53.4893347 ], [ 0.6692076, 53.4672896 ], [ 0.6340372, 53.4506904 ], [ 0.6109803, 53.4352862 ], [ 0.5903522, 53.4198485 ], [ 0.5743628, 53.4028933 ], [ 0.5579784, 53.38165 ], [ 0.5415044, 53.359009 ], [ 0.5342529, 53.3333475 ], [ 0.5300771, 53.3148226 ], [ 0.5284056, 53.2976998 ], [ 0.531034, 53.2762279 ], [ 0.5339352, 53.2576315 ], [ 0.5366992, 53.2376423 ], [ 0.5372501, 53.219155 ], [ 0.5353159, 53.1993235 ], [ 0.533529, 53.1809369 ], [ 0.5248683, 53.1641417 ], [ 0.5185676, 53.147317 ], [ 0.5148845, 53.1332761 ], [ 0.5088783, 53.1193048 ], [ 0.5026179, 53.1025407 ], [ 0.4913171, 53.0816831 ], [ 0.4803184, 53.0636653 ], [ 0.4670191, 53.0457184 ], [ 0.4433421, 53.0154304 ], [ 0.4229418, 52.9949091 ], [ 0.3977351, 52.9717346 ], [ 0.37284, 52.9513737 ], [ 0.3478932, 52.9296519 ], [ 0.3232478, 52.9107347 ], [ 0.3009571, 52.8917911 ], [ 0.2718436, 52.8730105 ], [ 0.2406117, 52.8556787 ], [ 0.214343, 52.8424026 ], [ 0.1928013, 52.8304235 ], [ 0.1735721, 52.8184004 ], [ 0.1521978, 52.8078076 ], [ 0.1307525, 52.7958458 ], [ 0.1119106, 52.787964 ], [ 0.0929916, 52.7787124 ], [ 0.0765625, 52.7721622 ], [ 0.057777, 52.7642867 ], [ 0.0435624, 52.7563262 ], [ 0.0271763, 52.749781 ], [ 0.0083514, 52.7405426 ], [ -0.0241739, 52.7301934 ], [ -0.0290604, 52.7248088 ], [ -0.0430288, 52.7195936 ], [ -0.0525309, 52.7129296 ], [ -0.0688336, 52.7063922 ], [ -0.0918479, 52.7013431 ], [ -0.1148457, 52.6962908 ], [ -0.1377525, 52.6925999 ], [ -0.15604, 52.6901901 ], [ -0.1741735, 52.6905052 ], [ -0.1990332, 52.6922964 ], [ -0.2305577, 52.6969249 ], [ -0.2486273, 52.6985923 ], [ -0.262097, 52.7015467 ], [ -0.2755704, 52.7044994 ], [ -0.2844456, 52.7087427 ], [ -0.2933898, 52.7116207 ], [ -0.3044778, 52.7172668 ], [ -0.3111593, 52.7201083 ], [ -0.3222578, 52.7257557 ], [ -0.3448703, 52.7468274 ], [ -0.3538578, 52.7511937 ], [ -0.3787088, 52.7614309 ], [ -0.4152284, 52.7704176 ], [ -0.449685, 52.7751335 ], [ -0.4933882, 52.77998 ], [ -0.5464914, 52.7821071 ], [ -0.5882269, 52.7798242 ], [ -0.6208793, 52.7731842 ], [ -0.6606466, 52.7610078 ], [ -0.7186563, 52.7292201 ], [ -0.7450155, 52.6943785 ], [ -0.7677803, 52.6478798 ], [ -0.7821581, 52.6122457 ], [ -0.8037247, 52.5518197 ], [ -0.8276876, 52.5015226 ], [ -0.8516506, 52.4650395 ], [ -0.8840006, 52.4413092 ], [ -0.9187468, 52.4208544 ], [ -0.9834468, 52.3952725 ], [ -1.0810958, 52.366018 ], [ -1.15598, 52.3389402 ], [ -1.27055, 52.3032797 ], [ -1.3422026, 52.2787919 ], [ -1.3770381, 52.2660408 ], [ -1.4050639, 52.2560801 ], [ -1.4386727, 52.2454186 ], [ -1.4744874, 52.2334101 ], [ -1.5125277, 52.2200429 ], [ -1.5550093, 52.2066942 ], [ -1.6018984, 52.1906428 ], [ -1.6420781, 52.1813375 ], [ -1.6778039, 52.176071 ], [ -1.7246714, 52.172204 ], [ -1.7894939, 52.1670001 ], [ -1.8543177, 52.1631189 ], [ -1.8923229, 52.1618563 ], [ -1.925819, 52.1592192 ], [ -1.9437416, 52.159251 ], [ -1.9706513, 52.159287 ], [ -1.997586, 52.1593133 ], [ -2.0245337, 52.1593298 ], [ -2.0606374, 52.166136 ], [ -2.1058749, 52.1708789 ], [ -2.1579286, 52.1750626 ], [ -2.2349288, 52.1792183 ], [ -2.3755018, 52.1859906 ], [ -2.491147, 52.188506 ], [ -2.6224263, 52.1991751 ], [ -2.7488792, 52.2084273 ], [ -2.8961544, 52.2201175 ], [ -3.0298843, 52.2275493 ], [ -3.0412337, 52.2288502 ], [ -3.1590492, 52.229256 ], [ -3.2902964, 52.2309623 ], [ -3.4195116, 52.2367496 ], [ -3.5598572, 52.2392733 ], [ -3.6775304, 52.2392538 ], [ -3.8133055, 52.2347992 ], [ -3.9381608, 52.2277183 ], [ -4.0465686, 52.2205553 ], [ -4.1504498, 52.2147452 ], [ -4.2593012, 52.2088476 ], [ -4.3652849, 52.1973069 ], [ -4.4786481, 52.1883551 ], [ -4.5806459, 52.1836437 ], [ -4.6532589, 52.1808183 ], [ -4.7011973, 52.1812441 ], [ -4.749291, 52.1830377 ], [ -4.7675157, 52.1826599 ], [ -5.2679443, 52.1553996 ] ] } },
{ "type": "Feature", "properties": { "Boundary_n": "B7", "ID": "BND017" }, "geometry": { "type": "LineString", "coordinates": [ [ -5.5838013, 54.4476859 ], [ -3.0710987, 54.6429009 ], [ -2.8761196, 54.6470417 ], [ -2.7494784, 54.6481417 ], [ -2.6987894, 54.6464713 ], [ -2.6443436, 54.6406163 ], [ -2.5785384, 54.6201101 ], [ -2.5129288, 54.5996195 ], [ -2.4510635, 54.5770388 ], [ -2.4256404, 54.568832 ], [ -2.3812866, 54.5449864 ], [ -2.3529009, 54.5318728 ], [ -2.3231515, 54.5132705 ], [ -2.2647957, 54.5031044 ], [ -2.1918275, 54.4908753 ], [ -2.1228071, 54.4682841 ], [ -2.0363334, 54.4540179 ], [ -1.9105719, 54.4376929 ], [ -1.7852579, 54.4191942 ], [ -1.6423557, 54.4088304 ], [ -1.5101917, 54.4086565 ], [ -1.4959034, 54.408629 ], [ -1.3171933, 54.4205499 ], [ -1.1990671, 54.4345642 ], [ -1.0770871, 54.4567353 ], [ -0.9691659, 54.4789079 ], [ -0.8248669, 54.5049383 ], [ -0.7089215, 54.5269532 ], [ -0.6144635, 54.5469783 ], [ -0.5271234, 54.5649343 ], [ -0.4139666, 54.5888545 ], [ -0.3184408, 54.6150148 ], [ -0.2302572, 54.634944 ], [ -0.0796612, 54.6603546 ], [ 0.0378943, 54.6755803 ], [ 0.1043948, 54.6872661 ], [ 0.269165, 54.7135155 ], [ 0.585022, 54.7452352 ], [ 0.920105, 54.7690086 ] ] } },
{ "type": "Feature", "properties": { "Boundary_n": "B0", "ID": "BND018" }, "geometry": { "type": "LineString", "coordinates": [ [ -5.6634521, 59.3079642 ], [ -5.592041, 58.8279612 ], [ -5.5815875, 58.7941151 ], [ -5.5799314, 58.7820024 ], [ -5.5795848, 58.7604201 ], [ -5.5820076, 58.7401316 ], [ -5.5794526, 58.721336 ], [ -5.5768986, 58.7025588 ], [ -5.5657282, 58.6772914 ], [ -5.558054, 58.6586827 ], [ -5.5529775, 58.640023 ], [ -5.5473706, 58.617363 ], [ -5.541801, 58.5947355 ], [ -5.5336787, 58.5721869 ], [ -5.5252314, 58.5469993 ], [ -5.5140809, 58.5205773 ], [ -5.5063819, 58.5007597 ], [ -5.4952999, 58.4743793 ], [ -5.4849333, 58.4533426 ], [ -5.4771363, 58.432249 ], [ -5.4696959, 58.4138254 ], [ -5.4619356, 58.3927648 ], [ -5.4521595, 58.3757622 ], [ -5.4397011, 58.3575128 ], [ -5.4299675, 58.3405252 ], [ -5.4177306, 58.3236167 ], [ -5.4053439, 58.3054003 ], [ -5.3931529, 58.2885149 ], [ -5.3834971, 58.2715649 ], [ -5.3713702, 58.254688 ], [ -5.3586055, 58.2352437 ], [ -5.3464193, 58.2157477 ], [ -5.3309087, 58.1924215 ], [ -5.3134862, 58.1731168 ], [ -5.2966037, 58.1577497 ], [ -5.282139, 58.1396682 ], [ -5.2598184, 58.1218578 ], [ -5.2428023, 58.1052175 ], [ -5.2232637, 58.088661 ], [ -5.2065333, 58.0733326 ], [ -5.1925994, 58.0605665 ], [ -5.1759683, 58.0479227 ], [ -5.1608044, 58.0368547 ], [ -5.1442756, 58.0255704 ], [ -5.1316304, 58.0138349 ], [ -5.1188043, 58.0034896 ], [ -5.1023439, 57.9908548 ], [ -5.0863205, 57.9767431 ], [ -5.0694028, 57.9629454 ], [ -5.0528386, 57.9490465 ], [ -5.0365794, 57.9377565 ], [ -5.0226274, 57.9264862 ], [ -5.0131912, 57.917909 ], [ -5.0103871, 57.9158784 ], [ -5.0049095, 57.911812 ], [ -4.999635, 57.9056266 ], [ -4.9942981, 57.9001418 ], [ -4.9877504, 57.893334 ], [ -4.9826475, 57.8857966 ], [ -4.9764098, 57.8789857 ], [ -4.966145, 57.8694745 ], [ -4.9559944, 57.8613627 ], [ -4.9471413, 57.8532303 ], [ -4.9368228, 57.8444544 ], [ -4.9252021, 57.8358969 ], [ -4.9164368, 57.8284969 ], [ -4.9066209, 57.8203885 ], [ -4.8967426, 57.8108838 ], [ -4.8826154, 57.7994261 ], [ -4.8708212, 57.7905265 ], [ -4.8586376, 57.7813006 ], [ -4.8468127, 57.772721 ], [ -4.8355016, 57.7640191 ], [ -4.8236743, 57.7536958 ], [ -4.8131851, 57.7468558 ], [ -4.8025078, 57.7379326 ], [ -4.7930205, 57.7304321 ], [ -4.7819312, 57.7216421 ], [ -4.7694668, 57.7129135 ], [ -4.7556551, 57.7035239 ], [ -4.7378858, 57.6942539 ], [ -4.724052, 57.6877659 ], [ -4.7131026, 57.6818101 ], [ -4.7011356, 57.6778968 ], [ -4.6918045, 57.6739053 ], [ -4.6824174, 57.6692236 ], [ -4.670625, 57.6644824 ], [ -4.6594913, 57.6601023 ], [ -4.6470648, 57.655769 ], [ -4.6318523, 57.6516513 ], [ -4.6200641, 57.647649 ], [ -4.6057935, 57.642887 ], [ -4.5911586, 57.6398494 ], [ -4.5791594, 57.6360012 ], [ -4.5700092, 57.6333469 ], [ -4.5608555, 57.632156 ], [ -4.5529351, 57.6295257 ], [ -4.5437341, 57.6269096 ], [ -4.5346019, 57.624963 ], [ -4.5267959, 57.6236922 ], [ -4.5215642, 57.6223794 ], [ -4.5138035, 57.6217979 ], [ -4.5034115, 57.6198304 ], [ -4.4930522, 57.6193065 ], [ -4.480111, 57.6188247 ], [ -4.4658265, 57.617676 ], [ -4.4528307, 57.6165042 ], [ -4.4437034, 57.6152706 ], [ -4.435951, 57.6154075 ], [ -4.4307917, 57.6154853 ], [ -4.4243526, 57.6155668 ], [ -4.416546, 57.6142617 ], [ -4.4061983, 57.613689 ], [ -4.3919783, 57.6131625 ], [ -4.3867525, 57.6125731 ], [ -4.3815744, 57.6126703 ], [ -4.3763492, 57.6120803 ], [ -4.3710778, 57.6108026 ], [ -4.3659004, 57.6108993 ], [ -4.3593358, 57.6096454 ], [ -4.3528592, 57.6097772 ], [ -4.3410925, 57.6086821 ], [ -4.3332683, 57.6081769 ], [ -4.3121647, 57.6032023 ], [ -4.2978763, 57.6028566 ], [ -4.279712, 57.6026124 ], [ -4.251264, 57.6023623 ], [ -4.2215171, 57.6021116 ], [ -4.1943433, 57.6018572 ], [ -4.1659159, 57.6023315 ], [ -4.1361413, 57.6020345 ], [ -4.1024884, 57.6023956 ], [ -4.0714655, 57.6035159 ], [ -4.0456975, 57.6059783 ], [ -4.0147804, 57.6092004 ], [ -3.9916207, 57.6123005 ], [ -3.9646295, 57.6168253 ], [ -3.9261559, 57.6256397 ], [ -3.8901156, 57.631655 ], [ -3.855347, 57.6376432 ], [ -3.8347936, 57.6427425 ], [ -3.8168235, 57.6478054 ], [ -3.7988697, 57.6535555 ], [ -3.7757843, 57.6614383 ], [ -3.7475058, 57.6700743 ], [ -3.7269275, 57.6765418 ], [ -3.7089122, 57.6822871 ], [ -3.6823832, 57.6901779 ], [ -3.647696, 57.6991492 ], [ -3.6157153, 57.709505 ], [ -3.5757055, 57.7228018 ], [ -3.5463857, 57.7345489 ], [ -3.5224808, 57.747666 ], [ -3.4877821, 57.7623193 ], [ -3.4557355, 57.7769426 ], [ -3.4289849, 57.7886499 ], [ -3.4075876, 57.7988715 ], [ -3.378102, 57.8120328 ], [ -3.3540061, 57.8251398 ], [ -3.3245713, 57.8440294 ], [ -3.3058265, 57.8570882 ], [ -3.2897792, 57.8701281 ], [ -3.273733, 57.8846057 ], [ -3.2603886, 57.8990639 ], [ -3.2496785, 57.9091986 ], [ -3.2415851, 57.913572 ], [ -3.2244873, 57.9410989 ], [ -2.9937744, 58.133021 ], [ -2.7003898, 58.4311866 ], [ -2.4884033, 58.665513 ], [ -2.2521973, 58.9074826 ], [ -2.076416, 59.0998464 ], [ -2.0477229, 59.139144 ] ] } },
{ "type": "Feature", "properties": { "Boundary_n": "B6", "ID": "BND019" }, "geometry": { "type": "LineString", "coordinates": [ [ -5.625, 54.4844001 ], [ -5.4164902, 54.5214873 ], [ -5.3816312, 54.5288435 ], [ -5.3431644, 54.5345032 ], [ -5.2999374, 54.5402817 ], [ -5.2366995, 54.5493431 ], [ -5.1684567, 54.5576107 ], [ -5.084171, 54.5653761 ], [ -4.9827339, 54.5753598 ], [ -4.8623397, 54.5866608 ], [ -4.7306887, 54.5981312 ], [ -4.600718, 54.6121759 ], [ -4.5944907, 54.6132344 ], [ -4.4386151, 54.6259041 ], [ -4.3215453, 54.6311717 ], [ -4.2062071, 54.6399663 ], [ -4.1999163, 54.6410104 ], [ -4.0987726, 54.6521893 ], [ -4.0024182, 54.6715191 ], [ -3.9184403, 54.6943363 ], [ -3.8435769, 54.7179785 ], [ -3.7827126, 54.7414585 ], [ -3.7036529, 54.7691005 ], [ -3.6435225, 54.7918167 ], [ -3.5796146, 54.8204 ], [ -3.5283562, 54.8460617 ], [ -3.4982567, 54.8657481 ], [ -3.4878953, 54.8803805 ], [ -3.4639297, 54.904979 ], [ -3.4217294, 54.9270461 ], [ -3.3677856, 54.9464385 ], [ -3.3308841, 54.9538424 ], [ -3.2441382, 54.9579996 ], [ -3.2407338, 54.9580382 ], [ -3.2276825, 54.9581863 ], [ -3.2040953, 54.9600519 ], [ -3.1821, 54.9612544 ], [ -3.1551683, 54.9641123 ], [ -3.1300586, 54.9679164 ], [ -3.1172215, 54.9699827 ], [ -3.1039312, 54.9733485 ], [ -3.0901332, 54.9776929 ], [ -3.0752936, 54.9833555 ], [ -3.0542473, 54.9904046 ], [ -3.0336725, 54.9977939 ], [ -3.0198422, 55.0041639 ], [ -3.0109899, 55.0085306 ], [ -2.9987695, 55.0142703 ], [ -2.9893821, 55.019999 ], [ -2.9821508, 55.024058 ], [ -2.9761034, 55.0287827 ], [ -2.9717661, 55.0334976 ], [ -2.9691711, 55.0385377 ], [ -2.9681847, 55.0415578 ], [ -2.9666623, 55.0449444 ], [ -2.9644522, 55.0466599 ], [ -2.9598911, 55.0480649 ], [ -2.9564667, 55.0491195 ], [ -2.9507626, 55.051528 ], [ -2.9462318, 55.0542613 ], [ -2.9423152, 55.0573498 ], [ -2.937844, 55.0611327 ], [ -2.9333775, 55.0649432 ], [ -2.9282799, 55.0684075 ], [ -2.9230965, 55.0704995 ], [ -2.9132792, 55.0740222 ], [ -2.9016894, 55.0782296 ], [ -2.8924505, 55.0830999 ], [ -2.8890177, 55.0858833 ], [ -2.8908584, 55.0876071 ], [ -2.8938807, 55.0896258 ], [ -2.8886944, 55.0931234 ], [ -2.8822923, 55.0959562 ], [ -2.8770791, 55.09915 ], [ -2.8753942, 55.1019435 ], [ -2.8736936, 55.1043851 ], [ -2.8695908, 55.1058502 ], [ -2.8654784, 55.1072871 ], [ -2.8613475, 55.1083389 ], [ -2.8554439, 55.1097698 ], [ -2.8489584, 55.1118714 ], [ -2.8436662, 55.114296 ], [ -2.8437071, 55.1160641 ], [ -2.8455512, 55.1185286 ], [ -2.8443849, 55.1196019 ], [ -2.840818, 55.1199851 ], [ -2.8342915, 55.1214542 ], [ -2.8277647, 55.1228624 ], [ -2.824807, 55.1243037 ], [ -2.8272271, 55.126444 ], [ -2.8296396, 55.1278687 ], [ -2.8320551, 55.1292937 ], [ -2.8327003, 55.1317904 ], [ -2.8315704, 55.1353762 ], [ -2.8298001, 55.1368073 ], [ -2.8268132, 55.1371478 ], [ -2.8208309, 55.1379088 ], [ -2.8148415, 55.1383097 ], [ -2.8100417, 55.1383684 ], [ -2.8058525, 55.1383598 ], [ -2.8040586, 55.138353 ], [ -2.7992796, 55.1390618 ], [ -2.7950986, 55.1401366 ], [ -2.790916, 55.1412117 ], [ -2.7837398, 55.1437323 ], [ -2.778343, 55.1451993 ], [ -2.763623, 55.1537296 ], [ -2.7566812, 55.156178 ], [ -2.7518002, 55.1574112 ], [ -2.7482575, 55.1578369 ], [ -2.7454011, 55.1582606 ], [ -2.740354, 55.1591068 ], [ -2.7317379, 55.1607835 ], [ -2.7268085, 55.1624239 ], [ -2.7176952, 55.1652939 ], [ -2.714209, 55.1665207 ], [ -2.7114559, 55.1677416 ], [ -2.7087626, 55.169362 ], [ -2.7020824, 55.1742238 ], [ -2.6961211, 55.1815199 ], [ -2.6934391, 55.1843646 ], [ -2.6894898, 55.1896474 ], [ -2.6874833, 55.1916851 ], [ -2.6821872, 55.1969934 ], [ -2.6795089, 55.1998561 ], [ -2.6735928, 55.2072258 ], [ -2.6730311, 55.2096761 ], [ -2.6690201, 55.2146037 ], [ -2.6662537, 55.2170723 ], [ -2.6627946, 55.2191455 ], [ -2.6599797, 55.2199874 ], [ -2.657075, 55.2200072 ], [ -2.650649, 55.220876 ], [ -2.6456771, 55.2221434 ], [ -2.6407415, 55.2238239 ], [ -2.6357904, 55.2255043 ], [ -2.6345162, 55.2275765 ], [ -2.6340187, 55.2300622 ], [ -2.6334403, 55.2317226 ], [ -2.6314622, 55.2342209 ], [ -2.6280792, 55.2375606 ], [ -2.6260427, 55.2396456 ], [ -2.6254999, 55.2417356 ], [ -2.6249556, 55.243826 ], [ -2.6222314, 55.2459386 ], [ -2.6179985, 55.2476449 ], [ -2.6144822, 55.2493443 ], [ -2.6175545, 55.2510002 ], [ -2.6219765, 55.2513865 ], [ -2.6249049, 55.2517744 ], [ -2.6278686, 55.2525813 ], [ -2.6307965, 55.2529689 ], [ -2.6360037, 55.2545913 ], [ -2.6389671, 55.2549876 ], [ -2.6419782, 55.2558069 ], [ -2.6449908, 55.2566264 ], [ -2.6464977, 55.2570363 ], [ -2.6474296, 55.2591337 ], [ -2.6411547, 55.2625576 ], [ -2.636211, 55.2651194 ], [ -2.6305311, 55.2685111 ], [ -2.6241564, 55.2719326 ], [ -2.6177079, 55.2757464 ], [ -2.6126338, 55.2791045 ], [ -2.6075664, 55.2820576 ], [ -2.6016768, 55.284568 ], [ -2.5972274, 55.287458 ], [ -2.5942873, 55.2891238 ], [ -2.5906374, 55.2908107 ], [ -2.5864941, 55.2946905 ], [ -2.581566, 55.298155 ], [ -2.578074, 55.3011846 ], [ -2.5744932, 55.3029339 ], [ -2.5716781, 55.3051109 ], [ -2.5703749, 55.3077126 ], [ -2.5682816, 55.3094699 ], [ -2.5631757, 55.3112239 ], [ -2.556548, 55.3121454 ], [ -2.5536196, 55.3130274 ], [ -2.5537233, 55.3155792 ], [ -2.553827, 55.318133 ], [ -2.5501864, 55.3198778 ], [ -2.5456574, 55.3198562 ], [ -2.5426546, 55.3198558 ], [ -2.5389021, 55.3198551 ], [ -2.5344993, 55.3215942 ], [ -2.5293423, 55.323334 ], [ -2.5241814, 55.3250747 ], [ -2.5205211, 55.3268188 ], [ -2.5168804, 55.3290048 ], [ -2.5132828, 55.3324829 ], [ -2.5103912, 55.3350932 ], [ -2.5074906, 55.3376991 ], [ -2.5045823, 55.340709 ], [ -2.5010021, 55.3446758 ], [ -2.4966211, 55.3477689 ], [ -2.4921542, 55.3490905 ], [ -2.4891908, 55.3500035 ], [ -2.4825067, 55.3502167 ], [ -2.4780188, 55.350708 ], [ -2.4727854, 55.35204 ], [ -2.4706046, 55.3538735 ], [ -2.4661422, 55.3556801 ], [ -2.4639401, 55.3574827 ], [ -2.4594212, 55.3579381 ], [ -2.4556403, 55.3579326 ], [ -2.4511048, 55.3579259 ], [ -2.4473138, 55.3574709 ], [ -2.4442923, 55.3574663 ], [ -2.4397841, 55.3583577 ], [ -2.4352726, 55.3592392 ], [ -2.4299855, 55.3592171 ], [ -2.4269687, 55.3592352 ], [ -2.4224288, 55.35839 ], [ -2.4156117, 55.3563328 ], [ -2.4118278, 55.3554291 ], [ -2.4080477, 55.354526 ], [ -2.4035132, 55.3531875 ], [ -2.3974688, 55.351005 ], [ -2.3929395, 55.3492654 ], [ -2.3891715, 55.348415 ], [ -2.3861564, 55.347563 ], [ -2.3816437, 55.3475934 ], [ -2.3748778, 55.3507329 ], [ -2.3688711, 55.3542382 ], [ -2.3636004, 55.35645 ], [ -2.3628474, 55.3564501 ], [ -2.3575659, 55.3578032 ], [ -2.3515322, 55.3591393 ], [ -2.3454854, 55.3613708 ], [ -2.3416855, 55.3636228 ], [ -2.3409285, 55.3653693 ], [ -2.3424447, 55.3670928 ], [ -2.3424436, 55.3675311 ], [ -2.3447104, 55.3697069 ], [ -2.3469806, 55.3723186 ], [ -2.3461924, 55.3754734 ], [ -2.3416378, 55.3777009 ], [ -2.337078, 55.3799306 ], [ -2.3325131, 55.3821624 ], [ -2.3332489, 55.3843986 ], [ -2.3392634, 55.3862916 ], [ -2.3460873, 55.3889662 ], [ -2.3483797, 55.3915782 ], [ -2.3438221, 55.3955372 ], [ -2.3407362, 55.3987473 ], [ -2.3368988, 55.402354 ], [ -2.3361143, 55.40462 ], [ -2.3322984, 55.4068266 ], [ -2.3322905, 55.4086112 ], [ -2.3277485, 55.4076316 ], [ -2.3246942, 55.40676 ], [ -2.3224008, 55.4067731 ], [ -2.3139834, 55.4077114 ], [ -2.3078383, 55.4099866 ], [ -2.3024896, 55.411745 ], [ -2.3001693, 55.4148609 ], [ -2.3000446, 55.4168563 ], [ -2.291685, 55.4189397 ], [ -2.2863468, 55.4202216 ], [ -2.2778319, 55.4212762 ], [ -2.271621, 55.4227299 ], [ -2.2700931, 55.4253365 ], [ -2.2685401, 55.4279846 ], [ -2.2615314, 55.4307786 ], [ -2.2522788, 55.4326 ], [ -2.2414776, 55.4331298 ], [ -2.2314144, 55.4345527 ], [ -2.2237685, 55.4345188 ], [ -2.2166986, 55.4351597 ], [ -2.2120706, 55.4360538 ], [ -2.2082232, 55.4364976 ], [ -2.2036091, 55.4369397 ], [ -2.2004823, 55.4387397 ], [ -2.1965108, 55.4423587 ], [ -2.1917072, 55.4464835 ], [ -2.1892769, 55.4492287 ], [ -2.1852862, 55.4519954 ], [ -2.1836119, 55.4556265 ], [ -2.1788515, 55.4588218 ], [ -2.1772882, 55.4610199 ], [ -2.1749397, 55.4632331 ], [ -2.1725889, 55.4650128 ], [ -2.1694679, 55.466789 ], [ -2.1686187, 55.4699233 ], [ -2.1714721, 55.4736854 ], [ -2.1758316, 55.4779567 ], [ -2.1817376, 55.4809485 ], [ -2.1845742, 55.4826059 ], [ -2.1881928, 55.4838332 ], [ -2.1926613, 55.4849815 ], [ -2.1965833, 55.4858247 ], [ -2.1982253, 55.4861505 ], [ -2.1989506, 55.4897438 ], [ -2.1996052, 55.4934453 ], [ -2.2027161, 55.4965409 ], [ -2.2050188, 55.4979207 ], [ -2.2065109, 55.4989058 ], [ -2.2102047, 55.5018805 ], [ -2.2116644, 55.5069069 ], [ -2.2130279, 55.5125441 ], [ -2.2150771, 55.5170339 ], [ -2.2193844, 55.5212789 ], [ -2.2215885, 55.5255592 ], [ -2.2215425, 55.5314525 ], [ -2.2219884, 55.5378862 ], [ -2.223362, 55.5436477 ], [ -2.2257209, 55.546371 ], [ -2.2303153, 55.5489278 ], [ -2.2347282, 55.5527784 ], [ -2.2392716, 55.5559613 ], [ -2.2424192, 55.5596624 ], [ -2.2470373, 55.5636467 ], [ -2.2516582, 55.5672113 ], [ -2.2555052, 55.5712085 ], [ -2.2611846, 55.5746542 ], [ -2.2658809, 55.5772071 ], [ -2.2706359, 55.5777945 ], [ -2.2754293, 55.5778269 ], [ -2.2810489, 55.5787073 ], [ -2.2866829, 55.5800048 ], [ -2.2922616, 55.5824042 ], [ -2.2898018, 55.5848939 ], [ -2.2873558, 55.5873285 ], [ -2.2857063, 55.5897775 ], [ -2.285604, 55.5938007 ], [ -2.2862522, 55.5993966 ], [ -2.2869408, 55.6039578 ], [ -2.2885012, 55.6059949 ], [ -2.2916925, 55.6075196 ], [ -2.2949091, 55.6085014 ], [ -2.2997368, 55.6099748 ], [ -2.304577, 55.610946 ], [ -2.3094016, 55.6134036 ], [ -2.3142227, 55.6173231 ], [ -2.3149904, 55.6203468 ], [ -2.3149668, 55.6218729 ], [ -2.3125133, 55.6229133 ], [ -2.3100497, 55.6244637 ], [ -2.3075395, 55.628564 ], [ -2.3075039, 55.630606 ], [ -2.3115849, 55.630057 ], [ -2.3180991, 55.6299956 ], [ -2.3229841, 55.6299492 ], [ -2.3270286, 55.6305259 ], [ -2.3278186, 55.6320868 ], [ -2.3236084, 55.6388488 ], [ -2.3183511, 55.6429194 ], [ -2.3158882, 55.6436402 ], [ -2.3115516, 55.6450756 ], [ -2.3090987, 55.6461513 ], [ -2.3053807, 55.6472319 ], [ -2.3023228, 55.6486671 ], [ -2.2991799, 55.6490337 ], [ -2.2966432, 55.6490419 ], [ -2.2921001, 55.6476303 ], [ -2.2888554, 55.6458676 ], [ -2.2862413, 55.6448101 ], [ -2.2830288, 55.6441069 ], [ -2.2785348, 55.6434095 ], [ -2.2779013, 55.6434114 ], [ -2.2722238, 55.6437838 ], [ -2.2703234, 55.6437894 ], [ -2.264692, 55.6448722 ], [ -2.2627913, 55.6448777 ], [ -2.2614782, 55.6441705 ], [ -2.2594186, 55.6416896 ], [ -2.2581073, 55.6409834 ], [ -2.2542655, 55.6402846 ], [ -2.2485839, 55.6403023 ], [ -2.2423484, 55.6406835 ], [ -2.2386041, 55.6414054 ], [ -2.2361254, 55.6424763 ], [ -2.2336273, 55.6431919 ], [ -2.2317635, 55.6439068 ], [ -2.2299385, 55.6453328 ], [ -2.2319647, 55.6474632 ], [ -2.2371382, 55.6488774 ], [ -2.2403423, 55.6492273 ], [ -2.2422934, 55.6502884 ], [ -2.2448629, 55.6509927 ], [ -2.2461709, 55.6517018 ], [ -2.2418655, 55.6535029 ], [ -2.2381371, 55.655294 ], [ -2.23061, 55.6578048 ], [ -2.2275077, 55.6592416 ], [ -2.2225948, 55.6621206 ], [ -2.2177157, 55.6653682 ], [ -2.2172274, 55.667886 ], [ -2.2185589, 55.6693147 ], [ -2.22177, 55.6703753 ], [ -2.2218105, 55.6710948 ], [ -2.2150724, 55.6743817 ], [ -2.2101507, 55.6776419 ], [ -2.2058518, 55.6809034 ], [ -2.2015632, 55.684531 ], [ -2.1985502, 55.688163 ], [ -2.1979936, 55.6899743 ], [ -2.1955162, 55.6917937 ], [ -2.1898066, 55.6925408 ], [ -2.1872974, 55.6936373 ], [ -2.1861003, 55.6954574 ], [ -2.1848908, 55.6972745 ], [ -2.1830213, 55.6983731 ], [ -2.177372, 55.7009414 ], [ -2.1691345, 55.7035102 ], [ -2.1634954, 55.7071689 ], [ -2.1616448, 55.7090038 ], [ -2.1675368, 55.7108443 ], [ -2.1714333, 55.71193 ], [ -2.1753106, 55.7133594 ], [ -2.1766682, 55.715185 ], [ -2.1773698, 55.7166478 ], [ -2.1742553, 55.718865 ], [ -2.1710819, 55.7192612 ], [ -2.167889, 55.7192881 ], [ -2.160196, 55.7200473 ], [ -2.155747, 55.7215331 ], [ -2.1532121, 55.722644 ], [ -2.1512905, 55.7237299 ], [ -2.1500659, 55.7262875 ], [ -2.15012, 55.7277627 ], [ -2.1508194, 55.7292374 ], [ -2.1521649, 55.7307113 ], [ -2.1522875, 55.7336805 ], [ -2.152368, 55.7355415 ], [ -2.1524518, 55.7377656 ], [ -2.1505586, 55.7392466 ], [ -2.1473368, 55.7396253 ], [ -2.144086, 55.7392594 ], [ -2.141459, 55.7385104 ], [ -2.1388457, 55.737774 ], [ -2.1362208, 55.7366677 ], [ -2.1316664, 55.7359323 ], [ -2.1284338, 55.7359389 ], [ -2.1252131, 55.7363165 ], [ -2.1194351, 55.7378078 ], [ -2.1168914, 55.7392974 ], [ -2.1137102, 55.7411623 ], [ -2.1111525, 55.7422834 ], [ -2.1144438, 55.7441372 ], [ -2.1190201, 55.7452551 ], [ -2.1197007, 55.7460116 ], [ -2.1152059, 55.7475108 ], [ -2.1126329, 55.7482615 ], [ -2.107485, 55.7501244 ], [ -2.1029879, 55.7516371 ], [ -2.0997871, 55.7535089 ], [ -2.0985234, 55.7550045 ], [ -2.0998247, 55.7550053 ], [ -2.1037684, 55.7565053 ], [ -2.1070401, 55.7572508 ], [ -2.1109501, 55.7583327 ], [ -2.1116199, 55.7594366 ], [ -2.1058288, 55.7617017 ], [ -2.1006544, 55.7628427 ], [ -2.0948074, 55.7628748 ], [ -2.0908962, 55.7628716 ], [ -2.086986, 55.7628691 ], [ -2.0830716, 55.7624981 ], [ -2.0784942, 55.7613813 ], [ -2.0752278, 55.7606391 ], [ -2.0739129, 55.7598911 ], [ -2.0687053, 55.7595311 ], [ -2.062859, 55.7595635 ], [ -2.0570115, 55.7610215 ], [ -2.0537744, 55.7621547 ], [ -2.0518382, 55.7632915 ], [ -2.0505769, 55.7663153 ], [ -2.0466838, 55.767821 ], [ -2.0408338, 55.7696944 ], [ -2.035623, 55.7700953 ], [ -2.031712, 55.7701192 ], [ -2.0271457, 55.7697743 ], [ -2.0225754, 55.7690094 ], [ -2.0173574, 55.7686392 ], [ -2.0127924, 55.7682717 ], [ -2.0121404, 55.7682733 ], [ -2.0082284, 55.7682825 ], [ -2.0017096, 55.7686513 ], [ -1.9958382, 55.769427 ], [ -1.9893114, 55.7709431 ], [ -1.9821239, 55.7728384 ], [ -1.9755856, 55.7743529 ], [ -1.9710057, 55.7754884 ], [ -1.9670831, 55.7758691 ], [ -1.9618453, 55.7770058 ], [ -1.9546525, 55.7773893 ], [ -1.9467943, 55.7785283 ], [ -1.9369699, 55.7796685 ], [ -1.9304171, 55.7804288 ], [ -1.9231996, 55.7815673 ], [ -1.9159542, 55.7838417 ], [ -1.9093726, 55.7853601 ], [ -1.8941773, 55.7902976 ], [ -1.8689944, 55.7982941 ], [ -1.7033049, 55.842769 ], [ -1.6908996, 55.8450732 ], [ -1.6715921, 55.8489161 ], [ -1.6495073, 55.8535297 ], [ -1.6177303, 55.86201 ], [ -1.5817285, 55.8720456 ], [ -1.5428571, 55.8813036 ], [ -1.5094523, 55.8913669 ], [ -1.4675597, 55.9053389 ], [ -1.4226813, 55.9216903 ], [ -1.3762122, 55.9380774 ], [ -1.309675, 55.9615614 ], [ -1.2356143, 55.9866914 ], [ -1.1554322, 56.0110849 ], [ -1.0746576, 56.0363715 ], [ -0.9933139, 56.0617586 ], [ -0.850132, 56.0998713 ], [ -0.7268451, 56.1259933 ], [ -0.7179435, 56.1283912 ], [ -0.6254794, 56.1540477 ], [ -0.6161043, 56.1597708 ], [ -0.5795288, 56.170023 ] ] } },
{ "type": "Feature", "properties": { "Boundary_n": "B5", "ID": "BND020" }, "geometry": { "type": "LineString", "coordinates": [ [ -6.078186, 55.0988019 ], [ -5.8612346, 55.1716182 ], [ -5.8377474, 55.1759757 ], [ -5.8057596, 55.1834712 ], [ -5.7640086, 55.194136 ], [ -5.7146395, 55.2043071 ], [ -5.659118, 55.216079 ], [ -5.5869414, 55.2383598 ], [ -5.4991473, 55.2696531 ], [ -5.4195001, 55.2949086 ], [ -5.3373478, 55.3216135 ], [ -5.2610592, 55.3445168 ], [ -5.2008692, 55.3647926 ], [ -5.1358953, 55.3894736 ], [ -5.1030748, 55.4061192 ], [ -5.082513, 55.4181367 ], [ -5.0572631, 55.4353018 ], [ -5.0336322, 55.4574533 ], [ -5.0183908, 55.4736521 ], [ -5.0080855, 55.4882907 ], [ -5.0017867, 55.5057073 ], [ -4.9963691, 55.5180736 ], [ -4.9934819, 55.5303793 ], [ -4.9919723, 55.5440927 ], [ -4.991834, 55.5592209 ], [ -4.9940749, 55.5721291 ], [ -4.9989159, 55.5856996 ], [ -5.0039201, 55.6014305 ], [ -5.0089876, 55.6178891 ], [ -5.0167688, 55.6364534 ], [ -5.0194097, 55.6544318 ], [ -5.0182267, 55.6725186 ], [ -5.0143816, 55.6892332 ], [ -5.0053652, 55.705366 ], [ -4.9948812, 55.7193289 ], [ -4.9949501, 55.7200923 ], [ -4.9347741, 55.8877756 ], [ -4.9307263, 55.8976922 ], [ -4.9277887, 55.9092177 ], [ -4.9227187, 55.9186156 ], [ -4.9166296, 55.9274926 ], [ -4.9124842, 55.9363273 ], [ -4.9103268, 55.9456623 ], [ -4.9078982, 55.951728 ], [ -4.9023888, 55.9562292 ], [ -4.8901095, 55.9608923 ], [ -4.8767822, 55.9650295 ], [ -4.8633229, 55.9675312 ], [ -4.8449434, 55.9696002 ], [ -4.8275388, 55.9716436 ], [ -4.8110211, 55.9725717 ], [ -4.7973417, 55.9723393 ], [ -4.7855696, 55.9715159 ], [ -4.7737564, 55.9701461 ], [ -4.7608051, 55.9666156 ], [ -4.7429507, 55.9626507 ], [ -4.7220181, 55.9565664 ], [ -4.6991525, 55.950526 ], [ -4.6832283, 55.9459663 ], [ -4.666378, 55.9419717 ], [ -4.6524112, 55.9373667 ], [ -4.6403912, 55.9327179 ], [ -4.6255943, 55.930304 ], [ -4.6059759, 55.9280027 ], [ -4.5699716, 55.9276906 ], [ -4.5524987, 55.9285931 ], [ -4.5447974, 55.929843 ], [ -4.5177564, 55.9280287 ], [ -4.4872259, 55.9253095 ], [ -4.4812118, 55.9248696 ], [ -4.4757288, 55.9244281 ], [ -4.4711677, 55.9228551 ], [ -4.4686203, 55.9217954 ], [ -4.4670136, 55.9201556 ], [ -4.4658586, 55.9187697 ], [ -4.4648093, 55.9171344 ], [ -4.4622016, 55.9152395 ], [ -4.460096, 55.9133356 ], [ -4.4584859, 55.9114215 ], [ -4.4563752, 55.9097917 ], [ -4.4543129, 55.9084444 ], [ -4.4522262, 55.9070937 ], [ -4.4501404, 55.9057435 ], [ -4.4475863, 55.9046823 ], [ -4.4455887, 55.9044449 ], [ -4.4416326, 55.9045259 ], [ -4.4381793, 55.9045976 ], [ -4.4332227, 55.9046975 ], [ -4.4292574, 55.9047772 ], [ -4.4252196, 55.9037454 ], [ -4.4231828, 55.9029516 ], [ -4.4206506, 55.9021677 ], [ -4.4185961, 55.9010961 ], [ -4.4170374, 55.9000146 ], [ -4.4159564, 55.8986455 ], [ -4.4153942, 55.8975444 ], [ -4.4143314, 55.896453 ], [ -4.4128052, 55.8959273 ], [ -4.4102581, 55.8948657 ], [ -4.4077114, 55.8938039 ], [ -4.403659, 55.8924942 ], [ -4.4011111, 55.8914326 ], [ -4.3975727, 55.8903907 ], [ -4.3940348, 55.8893487 ], [ -4.3920007, 55.8885549 ], [ -4.3899844, 55.8880388 ], [ -4.3869075, 55.8864317 ], [ -4.3853693, 55.8856281 ], [ -4.3843438, 55.8850924 ], [ -4.3812679, 55.8834854 ], [ -4.3782098, 55.882156 ], [ -4.3751519, 55.8808285 ], [ -4.3726248, 55.8800468 ], [ -4.369569, 55.8787196 ], [ -4.3675196, 55.8776455 ], [ -4.3644974, 55.8768688 ], [ -4.360946, 55.8755478 ], [ -4.3574128, 55.8745056 ], [ -4.3539141, 55.8740183 ], [ -4.3508765, 55.8729663 ], [ -4.3478561, 55.8721917 ], [ -4.3458264, 55.8713985 ], [ -4.3424287, 55.8702202 ], [ -4.3388343, 55.8691698 ], [ -4.3332929, 55.8686236 ], [ -4.3272272, 55.8684975 ], [ -4.3217607, 55.8679933 ], [ -4.3172676, 55.8669008 ], [ -4.3117262, 55.8652621 ], [ -4.3059601, 55.8637073 ], [ -4.3024406, 55.8626567 ], [ -4.2989959, 55.8613539 ], [ -4.295027, 55.8597149 ], [ -4.2909833, 55.8587903 ], [ -4.2859661, 55.8577396 ], [ -4.2787772, 55.8565208 ], [ -4.2742092, 55.8559324 ], [ -4.2682185, 55.8559744 ], [ -4.2632761, 55.8559744 ], [ -4.2564242, 55.8560164 ], [ -4.25107, 55.8566048 ], [ -4.2460902, 55.8577817 ], [ -4.2421588, 55.8592737 ], [ -4.2367297, 55.86148 ], [ -4.2312632, 55.863161 ], [ -4.2236998, 55.8644216 ], [ -4.2155375, 55.8647998 ], [ -4.200336, 55.8645897 ], [ -4.1910503, 55.8639174 ], [ -4.1836368, 55.8640014 ], [ -4.1761484, 55.8649259 ], [ -4.1643167, 55.8676992 ], [ -4.1506878, 55.872657 ], [ -4.1409528, 55.87669 ], [ -4.12987, 55.8803025 ], [ -4.1205843, 55.8821507 ], [ -4.1118977, 55.8834947 ], [ -4.1035107, 55.8846707 ], [ -4.0850143, 55.8847547 ], [ -4.0695882, 55.8856787 ], [ -4.0556972, 55.8868126 ], [ -4.0418436, 55.8875266 ], [ -4.0261179, 55.8886185 ], [ -4.0100178, 55.8916 ], [ -4.0004326, 55.8935316 ], [ -3.9906977, 55.8936576 ], [ -3.9839581, 55.8924399 ], [ -3.9758706, 55.8900463 ], [ -3.9617924, 55.8847547 ], [ -3.9486128, 55.8808486 ], [ -3.9298917, 55.8772781 ], [ -3.9061508, 55.8749639 ], [ -3.8828049, 55.874069 ], [ -3.8609832, 55.8731464 ], [ -3.844054, 55.8723551 ], [ -3.8278813, 55.8717598 ], [ -3.8112814, 55.8707439 ], [ -3.7943123, 55.869523 ], [ -3.7735968, 55.8675177 ], [ -3.7459738, 55.8653829 ], [ -3.7297953, 55.8637266 ], [ -3.7162227, 55.8622376 ], [ -3.700431, 55.8609917 ], [ -3.687588, 55.8596969 ], [ -3.6842028, 55.859534 ], [ -3.6694336, 55.8583581 ], [ -3.6600071, 55.8574303 ], [ -3.6596333, 55.8574348 ], [ -3.6248471, 55.8568511 ], [ -3.6236761, 55.8567463 ], [ -3.6148486, 55.8559587 ], [ -3.6048311, 55.854549 ], [ -3.5937156, 55.8541692 ], [ -3.5826631, 55.8551787 ], [ -3.5815607, 55.8552 ], [ -3.5809902, 55.8552187 ], [ -3.577845, 55.8570086 ], [ -3.5762708, 55.8579055 ], [ -3.5743168, 55.8594656 ], [ -3.5727315, 55.8601452 ], [ -3.5711744, 55.8617023 ], [ -3.5664246, 55.8644041 ], [ -3.5632839, 55.8673136 ], [ -3.5609418, 55.8702208 ], [ -3.5606192, 55.8731106 ], [ -3.5595423, 55.8780277 ], [ -3.5592706, 55.8829588 ], [ -3.5594103, 55.8874528 ], [ -3.5603886, 55.8930906 ], [ -3.5622651, 55.9007899 ], [ -3.5654749, 55.911286 ], [ -3.567289, 55.9163415 ], [ -3.5700605, 55.9248957 ], [ -3.5757743, 55.9334775 ], [ -3.5776218, 55.9384246 ], [ -3.5842092, 55.9461115 ], [ -3.5890582, 55.9515953 ], [ -3.5943611, 55.9570784 ], [ -3.6081227, 55.969395 ], [ -3.6121323, 55.9725546 ], [ -3.6185755, 55.9775903 ], [ -3.627734, 55.9824902 ], [ -3.6412132, 55.9868469 ], [ -3.6552539, 55.9894858 ], [ -3.6689577, 55.9911194 ], [ -3.6801904, 55.9920408 ], [ -3.6923965, 55.9942187 ], [ -3.705651, 56.0002491 ], [ -3.7127276, 56.0102976 ], [ -3.7154234, 56.0174138 ], [ -3.7151492, 56.0360462 ], [ -3.714432, 56.0369091 ], [ -3.7122155, 56.0382197 ], [ -3.7062279, 56.0402228 ], [ -3.7020983, 56.0413468 ], [ -3.6979365, 56.0418316 ], [ -3.6933732, 56.0418954 ], [ -3.6868779, 56.0413463 ], [ -3.6796021, 56.0403812 ], [ -3.6734783, 56.0396132 ], [ -3.6696261, 56.0386006 ], [ -3.6657844, 56.0378009 ], [ -3.6626831, 56.0365651 ], [ -3.6592233, 56.0357606 ], [ -3.6557538, 56.0347436 ], [ -3.6515233, 56.0337353 ], [ -3.6461542, 56.0327432 ], [ -3.6384867, 56.0313564 ], [ -3.6304314, 56.0297615 ], [ -3.6262049, 56.0287537 ], [ -3.6215991, 56.027751 ], [ -3.6181334, 56.0267325 ], [ -3.6158262, 56.0261244 ], [ -3.6062622, 56.024483 ], [ -3.5649735, 56.0185847 ], [ -3.5509171, 56.0154032 ], [ -3.5289246, 56.011204 ], [ -3.507146, 56.0092376 ], [ -3.4754929, 56.0062678 ], [ -3.4303261, 56.0068011 ], [ -3.4087232, 56.0070243 ], [ -3.3890856, 56.0072149 ], [ -3.3400846, 56.0078612 ], [ -3.3008557, 56.0083224 ], [ -3.2557808, 56.0099335 ], [ -3.2126535, 56.0115107 ], [ -3.1695431, 56.0141938 ], [ -3.1362521, 56.0178888 ], [ -3.1127724, 56.0226032 ], [ -3.0834526, 56.0329934 ], [ -3.0501758, 56.0502104 ], [ -3.0147554, 56.0686469 ], [ -2.9890451, 56.0813755 ], [ -2.9592603, 56.0964637 ], [ -2.9273186, 56.1150599 ], [ -2.8852344, 56.1315151 ], [ -2.8450762, 56.1410732 ], [ -2.7929342, 56.1449486 ], [ -2.722807, 56.1454722 ], [ -2.664809, 56.1435683 ], [ -2.5969326, 56.1393966 ], [ -2.525127, 56.1352213 ], [ -2.4633094, 56.1321143 ], [ -2.4157412, 56.1266092 ], [ -2.3601292, 56.1222823 ], [ -2.3106916, 56.1167655 ], [ -2.2669344, 56.1146583 ], [ -2.2189434, 56.1148466 ], [ -2.1444783, 56.1185615 ], [ -2.0490284, 56.1280523 ], [ -1.9570702, 56.1386537 ], [ -1.8907534, 56.1503554 ], [ -1.8033301, 56.1655848 ], [ -1.6582321, 56.192566 ], [ -1.5500477, 56.2125594 ], [ -1.5354742, 56.2137386 ], [ -1.4117432, 56.2357182 ] ] } },
{ "type": "Feature", "properties": { "Boundary_n": "B4", "ID": "BND021" }, "geometry": { "type": "LineString", "coordinates": [ [ -6.413269, 55.218057 ], [ -6.1149475, 55.2252214 ], [ -6.0008731, 55.2302157 ], [ -5.9076253, 55.236537 ], [ -5.9029451, 55.2366916 ], [ -5.8963928, 55.2369074 ], [ -5.8851607, 55.2372769 ], [ -5.8654487, 55.2373885 ], [ -5.8429852, 55.2381201 ], [ -5.8195853, 55.2388779 ], [ -5.7945255, 55.2418204 ], [ -5.7686268, 55.245853 ], [ -5.7364673, 55.2532848 ], [ -5.7080282, 55.2605945 ], [ -5.6796598, 55.2689683 ], [ -5.6496302, 55.2800672 ], [ -5.6186622, 55.2917334 ], [ -5.595879, 55.3004694 ], [ -5.5778136, 55.3095999 ], [ -5.5571293, 55.3214955 ], [ -5.5357976, 55.3371812 ], [ -5.5218949, 55.3515819 ], [ -5.5089134, 55.367064 ], [ -5.4861453, 55.4022923 ], [ -5.478853, 55.4181999 ], [ -5.4732335, 55.4313665 ], [ -5.4647996, 55.4451707 ], [ -5.455561, 55.4611916 ], [ -5.4479954, 55.4744624 ], [ -5.4433554, 55.4887517 ], [ -5.4388271, 55.5046926 ], [ -5.435207, 55.5200833 ], [ -5.4301878, 55.5426475 ], [ -5.4286966, 55.5613175 ], [ -5.4289399, 55.5646008 ], [ -5.4283035, 55.5690084 ], [ -5.4272461, 55.5845545 ], [ -5.414028, 55.6353411 ], [ -5.4134646, 55.6391034 ], [ -5.411952, 55.6428947 ], [ -5.4098221, 55.6499168 ], [ -5.4093677, 55.6547515 ], [ -5.4081284, 55.6612189 ], [ -5.4068861, 55.6676868 ], [ -5.4058099, 55.6757681 ], [ -5.4028889, 55.6844416 ], [ -5.3998536, 55.6920492 ], [ -5.3967026, 55.6985903 ], [ -5.3915419, 55.7041126 ], [ -5.3865398, 55.7112504 ], [ -5.3760349, 55.7207008 ], [ -5.3691157, 55.7278985 ], [ -5.3613421, 55.7362028 ], [ -5.3544101, 55.7434093 ], [ -5.3494335, 55.7511042 ], [ -5.3426475, 55.7599344 ], [ -5.335863, 55.7698071 ], [ -5.3327456, 55.778991 ], [ -5.3287302, 55.7871956 ], [ -5.3267006, 55.7948809 ], [ -5.3255839, 55.8015069 ], [ -5.3253991, 55.8091233 ], [ -5.3241861, 55.8162199 ], [ -5.3247724, 55.8221804 ], [ -5.3244468, 55.8287095 ], [ -5.3222042, 55.8352936 ], [ -5.3210238, 55.8429406 ], [ -5.3170662, 55.8517576 ], [ -5.3130135, 55.8600057 ], [ -5.3097717, 55.866608 ], [ -5.3063168, 55.8710358 ], [ -5.2999527, 55.8755202 ], [ -5.2934431, 55.8783844 ], [ -5.289917, 55.890716 ], [ -5.2267456, 55.9676501 ], [ -5.1925664, 56.0035249 ], [ -5.1889853, 56.0057431 ], [ -5.1819801, 56.0117653 ], [ -5.1750978, 56.0188472 ], [ -5.1690518, 56.0248463 ], [ -5.1622358, 56.0324565 ], [ -5.1510168, 56.0439099 ], [ -5.1406027, 56.0542917 ], [ -5.133567, 56.0629096 ], [ -5.1240979, 56.0712291 ], [ -5.1149278, 56.0789519 ], [ -5.1050345, 56.0861396 ], [ -5.0891235, 56.0982617 ], [ -5.0760907, 56.1076394 ], [ -5.0602129, 56.117644 ], [ -5.0389546, 56.1299305 ], [ -5.0225753, 56.1389112 ], [ -5.0054406, 56.1462708 ], [ -4.9897886, 56.1530753 ], [ -4.9748508, 56.1593164 ], [ -4.9605666, 56.1649856 ], [ -4.9438988, 56.1713517 ], [ -4.9255596, 56.1771916 ], [ -4.9099849, 56.1824322 ], [ -4.8977941, 56.1854203 ], [ -4.8822885, 56.1893573 ], [ -4.8678573, 56.1928617 ], [ -4.8557286, 56.1953128 ], [ -4.8402285, 56.1984585 ], [ -4.8294104, 56.1999049 ], [ -4.8199134, 56.2012111 ], [ -4.8111157, 56.2013892 ], [ -4.8042792, 56.202054 ], [ -4.7964354, 56.2022046 ], [ -4.7905108, 56.2023074 ], [ -4.7754484, 56.2048337 ], [ -4.7717208, 56.2049477 ], [ -4.76421, 56.2056945 ], [ -4.7586, 56.2063932 ], [ -4.7540234, 56.2076153 ], [ -4.7465291, 56.2083764 ], [ -4.7407534, 56.2095621 ], [ -4.7327384, 56.2106952 ], [ -4.7251168, 56.2129851 ], [ -4.7194642, 56.2136785 ], [ -4.7138736, 56.215438 ], [ -4.7101159, 56.2160801 ], [ -4.7054506, 56.217808 ], [ -4.6981167, 56.220212 ], [ -4.6906913, 56.2236291 ], [ -4.684201, 56.2270143 ], [ -4.6805446, 56.2297885 ], [ -4.6768382, 56.233567 ], [ -4.6750777, 56.2367907 ], [ -4.6736498, 56.2432874 ], [ -4.6742483, 56.250829 ], [ -4.6746129, 56.255666 ], [ -4.6759397, 56.2609877 ], [ -4.679229, 56.2667947 ], [ -4.6815574, 56.2726248 ], [ -4.6871238, 56.2796653 ], [ -4.6926311, 56.2851461 ], [ -4.6969057, 56.2894277 ], [ -4.7011014, 56.2931394 ], [ -4.7062989, 56.29736 ], [ -4.7115373, 56.3021192 ], [ -4.7177244, 56.3063309 ], [ -4.7208514, 56.3089696 ], [ -4.7239314, 56.3110636 ], [ -4.7249087, 56.3115534 ], [ -4.7327603, 56.3160058 ], [ -4.7404091, 56.3192922 ], [ -4.7474505, 56.3223745 ], [ -4.7554746, 56.3249405 ], [ -4.7634058, 56.3274314 ], [ -4.7672607, 56.3293576 ], [ -4.7711106, 56.3312809 ], [ -4.7760139, 56.3332464 ], [ -4.782973, 56.3367742 ], [ -4.7915227, 56.3417373 ], [ -4.80209, 56.3467014 ], [ -4.8123267, 56.3498974 ], [ -4.8183761, 56.3514412 ], [ -4.8223556, 56.3534543 ], [ -4.8272285, 56.3548817 ], [ -4.8350686, 56.3572964 ], [ -4.840012, 56.3587719 ], [ -4.8508042, 56.3621694 ], [ -4.8577185, 56.3646397 ], [ -4.863691, 56.3656186 ], [ -4.8706544, 56.3681192 ], [ -4.8785335, 56.3705628 ], [ -4.8837925, 56.3727422 ], [ -4.8879551, 56.373847 ], [ -4.8950137, 56.3758854 ], [ -4.9037882, 56.3772307 ], [ -4.9166571, 56.3796314 ], [ -4.9259235, 56.3817702 ], [ -4.9563887, 56.3858762 ], [ -4.9694795, 56.3868215 ], [ -4.9822564, 56.3865579 ], [ -4.9960218, 56.3862725 ], [ -5.0222823, 56.3824582 ], [ -5.0349093, 56.3810741 ], [ -5.0456093, 56.3797454 ], [ -5.0553759, 56.3789806 ], [ -5.0651578, 56.3787421 ], [ -5.0729792, 56.378549 ], [ -5.0837096, 56.3782708 ], [ -5.0944989, 56.3785421 ], [ -5.103283, 56.37936 ], [ -5.1081748, 56.380284 ], [ -5.1082438, 56.3808332 ], [ -5.1154069, 56.384444 ], [ -5.1185583, 56.3865451 ], [ -5.1217104, 56.3886463 ], [ -5.1248888, 56.3907574 ], [ -5.1282904, 56.3934804 ], [ -5.1318982, 56.397332 ], [ -5.1321831, 56.4006771 ], [ -5.1303701, 56.4060797 ], [ -5.1272698, 56.4123044 ], [ -5.1246642, 56.4182181 ], [ -5.1230432, 56.4225538 ], [ -5.1215138, 56.4264593 ], [ -5.1197634, 56.4301742 ], [ -5.1178597, 56.4327943 ], [ -5.1124803, 56.4357545 ], [ -5.1077881, 56.4395724 ], [ -5.1039036, 56.4422675 ], [ -5.098261, 56.4451175 ], [ -5.09404, 56.4471193 ], [ -5.0907949, 56.4470366 ], [ -5.0865528, 56.4469616 ], [ -5.072937, 56.4488311 ], [ -5.0600893, 56.448496 ], [ -5.0541449, 56.4470356 ], [ -5.0486695, 56.44623 ], [ -5.0406829, 56.4445607 ], [ -5.0298458, 56.4423905 ], [ -5.0187174, 56.4407271 ], [ -5.0112811, 56.4394432 ], [ -5.0016071, 56.4379019 ], [ -4.987148, 56.4346268 ], [ -4.9735146, 56.431501 ], [ -4.954669, 56.427856 ], [ -4.9411476, 56.4266305 ], [ -4.9192324, 56.4246782 ], [ -4.8942669, 56.4217151 ], [ -4.8502818, 56.4160244 ], [ -4.8173749, 56.410182 ], [ -4.77925, 56.4052003 ], [ -4.7510177, 56.4001406 ], [ -4.7207829, 56.3924276 ], [ -4.6919935, 56.3844297 ], [ -4.6891008, 56.3834681 ], [ -4.6586107, 56.3735683 ], [ -4.6255268, 56.3612602 ], [ -4.596389, 56.3463268 ], [ -4.5664293, 56.3309759 ], [ -4.5361894, 56.3118393 ], [ -4.5119927, 56.2952958 ], [ -4.4867602, 56.2776904 ], [ -4.4674509, 56.2626002 ], [ -4.4511735, 56.2495741 ], [ -4.4292425, 56.2357006 ], [ -4.4071611, 56.2206959 ], [ -4.3861654, 56.2037074 ], [ -4.36214, 56.1866554 ], [ -4.3408934, 56.1709895 ], [ -4.3277503, 56.1600562 ], [ -4.3119453, 56.1508384 ], [ -4.2873993, 56.1391313 ], [ -4.2591351, 56.1280507 ], [ -4.2311769, 56.1196903 ], [ -4.2131799, 56.1122089 ], [ -4.2081384, 56.1110943 ], [ -4.1986741, 56.1097647 ], [ -4.1829566, 56.110044 ], [ -4.1690491, 56.1121024 ], [ -4.1482565, 56.1167069 ], [ -4.1285396, 56.1222122 ], [ -4.1089252, 56.128629 ], [ -4.0897775, 56.1365776 ], [ -4.074432, 56.1444653 ], [ -4.0633204, 56.1504542 ], [ -4.0521967, 56.156446 ], [ -4.0394167, 56.1624693 ], [ -4.0255016, 56.1682081 ], [ -4.0168483, 56.1714011 ], [ -4.0076374, 56.1742959 ], [ -3.9903119, 56.1782537 ], [ -3.9664159, 56.1823285 ], [ -3.9440171, 56.185408 ], [ -3.918899, 56.1879195 ], [ -3.889459, 56.1907983 ], [ -3.8633531, 56.1929547 ], [ -3.8384386, 56.1947674 ], [ -3.8139443, 56.1951295 ], [ -3.791057, 56.1954808 ], [ -3.7652906, 56.1953026 ], [ -3.7321241, 56.1951535 ], [ -3.7006416, 56.1946665 ], [ -3.666826, 56.1946412 ], [ -3.6344506, 56.1954238 ], [ -3.6010305, 56.196043 ], [ -3.56521, 56.1953173 ], [ -3.5406964, 56.1943959 ], [ -3.5168024, 56.1932051 ], [ -3.4891633, 56.1917379 ], [ -3.472073, 56.1904272 ], [ -3.4572619, 56.19 ], [ -3.4423258, 56.1901929 ], [ -3.42691, 56.1913037 ], [ -3.4080787, 56.1930745 ], [ -3.387163, 56.1954712 ], [ -3.3711894, 56.1981144 ], [ -3.3590667, 56.2013236 ], [ -3.3546707, 56.2041366 ], [ -3.3530255, 56.2063029 ], [ -3.3530419, 56.2093704 ], [ -3.3547119, 56.2127267 ], [ -3.3574631, 56.2154604 ], [ -3.3613335, 56.2178721 ], [ -3.3635393, 56.2193826 ], [ -3.3646778, 56.2228458 ], [ -3.3685097, 56.2265991 ], [ -3.3716474, 56.2307749 ], [ -3.3739362, 56.2324375 ], [ -3.3755003, 56.2387633 ], [ -3.3763417, 56.2425508 ], [ -3.3772624, 56.2471712 ], [ -3.3796958, 56.2530479 ], [ -3.3797549, 56.2581274 ], [ -3.3798546, 56.2619258 ], [ -3.3768854, 56.266619 ], [ -3.3723825, 56.2704858 ], [ -3.3650048, 56.2756222 ], [ -3.3573271, 56.2804121 ], [ -3.3504896, 56.285599 ], [ -3.3437426, 56.2911863 ], [ -3.3379215, 56.295871 ], [ -3.3303117, 56.3010706 ], [ -3.3242144, 56.3058319 ], [ -3.3165431, 56.3102026 ], [ -3.3098198, 56.3145065 ], [ -3.3024424, 56.318357 ], [ -3.2971354, 56.3205418 ], [ -3.2872583, 56.3266199 ], [ -3.2850398, 56.3279048 ], [ -3.2811792, 56.3305246 ], [ -3.277794, 56.3336531 ], [ -3.2744549, 56.3363439 ], [ -3.270306, 56.3403448 ], [ -3.2428083, 56.3676018 ], [ -3.2353724, 56.3700574 ], [ -3.2174392, 56.3779522 ], [ -3.194148, 56.3864964 ], [ -3.1729624, 56.394423 ], [ -3.150702, 56.4023553 ], [ -3.1263167, 56.4114941 ], [ -3.1125412, 56.4169642 ], [ -3.0881576, 56.4266899 ], [ -3.0668085, 56.4334268 ], [ -3.0402396, 56.4360189 ], [ -3.0124053, 56.439133 ], [ -2.9804913, 56.4440945 ], [ -2.9546703, 56.451113 ], [ -2.9353951, 56.4600683 ], [ -2.9246779, 56.4613405 ], [ -2.9117929, 56.4620349 ], [ -2.8978488, 56.4633298 ], [ -2.8868779, 56.4589091 ], [ -2.8676518, 56.4572332 ], [ -2.8416452, 56.4595424 ], [ -2.8202247, 56.4606047 ], [ -2.7949792, 56.4586544 ], [ -2.7713786, 56.4585084 ], [ -2.7499571, 56.4571314 ], [ -2.7323701, 56.4551182 ], [ -2.7126372, 56.4590319 ], [ -2.6920896, 56.4664353 ], [ -2.6723301, 56.4761246 ], [ -2.6358826, 56.4828555 ], [ -2.5940337, 56.4896104 ], [ -2.5500161, 56.4969572 ], [ -2.4908881, 56.5037617 ], [ -2.4123384, 56.5118002 ], [ -2.341257, 56.5185819 ], [ -2.2787425, 56.5253032 ], [ -2.2064626, 56.5337987 ], [ -2.1611082, 56.5398349 ], [ -2.1167998, 56.5458554 ], [ -2.0735321, 56.5524576 ], [ -2.0302217, 56.5590449 ], [ -1.9955439, 56.565024 ], [ -1.9532369, 56.5721885 ], [ -1.8989269, 56.5823203 ], [ -1.8216146, 56.6001815 ], [ -1.8183458, 56.6007759 ], [ -1.7888378, 56.6108951 ], [ -1.6704718, 56.6204954 ] ] } },
{ "type": "Feature", "properties": { "Boundary_n": "B2", "ID": "BND024" }, "geometry": { "type": "LineString", "coordinates": [ [ -7.3223877, 55.9799454 ], [ -7.2343772, 55.9800712 ], [ -7.2234711, 55.9805489 ], [ -7.2078868, 55.9812295 ], [ -7.1829668, 55.9823135 ], [ -7.1505237, 55.985453 ], [ -7.116666, 55.9895133 ], [ -7.0781315, 55.9937631 ], [ -7.0366136, 55.9989907 ], [ -7.033498, 55.999123 ], [ -6.9914718, 56.0008768 ], [ -6.9603451, 56.0021677 ], [ -6.9218176, 56.0063597 ], [ -6.8661706, 56.0112311 ], [ -6.8092066, 56.0178652 ], [ -6.8015472, 56.0190394 ], [ -6.7370236, 56.0276735 ], [ -6.6695881, 56.0381197 ], [ -6.6189045, 56.0452804 ], [ -6.5758723, 56.0512606 ], [ -6.5298199, 56.058206 ], [ -6.4656911, 56.0710151 ], [ -6.3802913, 56.0897769 ], [ -6.3147429, 56.1051694 ], [ -6.2583765, 56.1193392 ], [ -6.2111202, 56.1314301 ], [ -6.1672176, 56.1460053 ], [ -6.1596809, 56.148877 ], [ -6.10963, 56.165393 ], [ -6.0670544, 56.1790314 ], [ -6.0155426, 56.1981931 ], [ -5.9700393, 56.2154037 ], [ -5.9245301, 56.2334853 ], [ -5.8849823, 56.2487447 ], [ -5.8547226, 56.2628424 ], [ -5.8259299, 56.2760077 ], [ -5.7988239, 56.2908799 ], [ -5.7732477, 56.305707 ], [ -5.736872, 56.3243868 ], [ -5.701853, 56.3412725 ], [ -5.6651942, 56.3582155 ], [ -5.6347841, 56.3749701 ], [ -5.6091511, 56.392478 ], [ -5.6016353, 56.3979889 ], [ -5.5908849, 56.4124765 ], [ -5.582509, 56.4222504 ], [ -5.5739279, 56.4303008 ], [ -5.5668272, 56.4374379 ], [ -5.5612028, 56.4436673 ], [ -5.5554736, 56.4490346 ], [ -5.5482632, 56.4553169 ], [ -5.5379903, 56.4625539 ], [ -5.5292009, 56.4688823 ], [ -5.5220687, 56.4760264 ], [ -5.5149361, 56.4831739 ], [ -5.5136421, 56.4858138 ], [ -5.5079744, 56.492057 ], [ -5.5035014, 56.4947966 ], [ -5.4989545, 56.4966605 ], [ -5.4916321, 56.5020864 ], [ -5.4721159, 56.5121974 ], [ -5.4572815, 56.5212954 ], [ -5.4453751, 56.5285853 ], [ -5.435044, 56.5358301 ], [ -5.4245247, 56.5413423 ], [ -5.4155809, 56.5468103 ], [ -5.4019748, 56.5532795 ], [ -5.3851754, 56.5598441 ], [ -5.3714633, 56.566338 ], [ -5.3543803, 56.5711914 ], [ -5.3324682, 56.5788709 ], [ -5.3122737, 56.5864605 ], [ -5.2904528, 56.5923181 ], [ -5.2652947, 56.5974127 ], [ -5.2389989, 56.6024185 ], [ -5.2123097, 56.6066418 ], [ -5.1862865, 56.6097568 ], [ -5.1676897, 56.6119102 ], [ -5.1456606, 56.6142265 ], [ -5.1206488, 56.6183459 ], [ -5.1030863, 56.6215338 ], [ -5.0858583, 56.6254951 ], [ -5.0622356, 56.6296443 ], [ -5.0434562, 56.6327358 ], [ -5.0216232, 56.6367559 ], [ -4.999867, 56.6407331 ], [ -4.9797404, 56.644635 ], [ -4.9640745, 56.6485625 ], [ -4.9471655, 56.6541531 ], [ -4.924173, 56.6615507 ], [ -4.9010736, 56.6708213 ], [ -4.8825866, 56.6782343 ], [ -4.8656785, 56.6856087 ], [ -4.8440841, 56.6939409 ], [ -4.827155, 56.7013037 ], [ -4.8118025, 56.708637 ], [ -4.7932656, 56.7160413 ], [ -4.7716722, 56.7252571 ], [ -4.7437553, 56.7337259 ], [ -4.7234417, 56.7385338 ], [ -4.7045144, 56.7424556 ], [ -4.6871488, 56.7454636 ], [ -4.6666141, 56.7485354 ], [ -4.6446151, 56.7524985 ], [ -4.6099644, 56.7575959 ], [ -4.5900108, 56.7623197 ], [ -4.5694559, 56.7671377 ], [ -4.5490742, 56.7710443 ], [ -4.5283363, 56.7750024 ], [ -4.5031693, 56.7816471 ], [ -4.4777777, 56.7883259 ], [ -4.4550464, 56.7947627 ], [ -4.4344998, 56.8004385 ], [ -4.4066874, 56.8072961 ], [ -4.3739326, 56.8148688 ], [ -4.3387174, 56.8258735 ], [ -4.3034113, 56.8380719 ], [ -4.2674336, 56.85071 ], [ -4.2598657, 56.8534057 ], [ -4.2381204, 56.860736 ], [ -4.195276, 56.8738297 ], [ -4.1549151, 56.8857664 ], [ -4.1177957, 56.8949744 ], [ -4.0800013, 56.9034517 ], [ -4.0482407, 56.910131 ], [ -4.0090114, 56.9168034 ], [ -3.9725337, 56.9226406 ], [ -3.9297379, 56.928552 ], [ -3.8695177, 56.9337904 ], [ -3.7962757, 56.9384212 ], [ -3.7373439, 56.9392385 ], [ -3.6974626, 56.9397537 ], [ -3.66545, 56.9384323 ], [ -3.651028, 56.9377443 ], [ -3.5760498, 56.9359845 ], [ -3.3618164, 56.9299901 ], [ -3.1256104, 56.915 ], [ -2.7960205, 56.8880026 ], [ -2.5048828, 56.8699935 ], [ -2.2565984, 56.8432981 ], [ -2.0733186, 56.8340138 ], [ -1.9006348, 56.8339493 ], [ -1.4666748, 56.8429636 ], [ -1.2304687, 56.8609858 ], [ -0.9118652, 56.8699935 ] ] } },
{ "type": "Feature", "properties": { "Boundary_n": "B13", "ID": "BND030" }, "geometry": { "type": "LineString", "coordinates": [ [ -5.2514648, 51.0586601 ], [ -5.0615066, 51.083051 ], [ -5.0419082, 51.0852457 ], [ -4.9343768, 51.1124534 ], [ -4.9177919, 51.1163562 ], [ -4.7251107, 51.1432665 ], [ -4.5774353, 51.167359 ], [ -4.4660715, 51.1871318 ], [ -4.3457106, 51.2015833 ], [ -4.2395751, 51.2175223 ], [ -4.1386261, 51.2279275 ], [ -4.0322687, 51.2419303 ], [ -3.939738, 51.2520945 ], [ -3.8440282, 51.2568428 ], [ -3.7651636, 51.2595457 ], [ -3.6721229, 51.2605639 ], [ -3.5537634, 51.2617729 ], [ -3.4807313, 51.2678615 ], [ -3.4019742, 51.272168 ], [ -3.3372883, 51.2763118 ], [ -3.2640327, 51.2769091 ], [ -3.1964171, 51.2774254 ], [ -3.1259482, 51.2761316 ], [ -3.0723233, 51.271099 ], [ -3.0300519, 51.269575 ], [ -2.973684, 51.2663113 ], [ -2.9116653, 51.2594827 ], [ -2.858161, 51.2561647 ], [ -2.7596605, 51.2475562 ], [ -2.6697672, 51.2386919 ], [ -2.5770351, 51.2318448 ], [ -2.4956373, 51.2248364 ], [ -2.414125, 51.2197526 ], [ -2.3635609, 51.2110253 ], [ -2.3327718, 51.2056689 ], [ -2.2992568, 51.1949792 ], [ -2.2264608, 51.1808146 ], [ -2.1760965, 51.1736882 ], [ -2.1482476, 51.1647678 ], [ -2.1065569, 51.1504743 ], [ -2.062318, 51.1325472 ], [ -2.0068266, 51.1094596 ], [ -1.9570356, 51.0898498 ], [ -1.9211173, 51.0755948 ], [ -1.8854616, 51.0542596 ], [ -1.8554335, 51.0346962 ], [ -1.8420394, 51.0204773 ], [ -1.8204691, 51.0026925 ], [ -1.793213, 50.9849621 ], [ -1.7799161, 50.969025 ], [ -1.7613231, 50.9477734 ], [ -1.7454995, 50.9283035 ], [ -1.7351078, 50.9123948 ], [ -1.7250507, 50.8894621 ], [ -1.7234179, 50.863096 ], [ -1.7217711, 50.8367666 ], [ -1.7228158, 50.8122351 ], [ -1.7208606, 50.7929717 ], [ -1.7273443, 50.7702607 ], [ -1.7395868, 50.7423618 ], [ -1.7517947, 50.7144962 ], [ -1.7611518, 50.6884045 ], [ -1.7760659, 50.6606196 ], [ -1.8139469, 50.6052222 ], [ -1.8485701, 50.5585969 ], [ -1.863616, 50.5206465 ], [ -1.8756239, 50.4896467 ], [ -1.9010354, 50.4639033 ], [ -1.9295301, 50.4244504 ], [ -1.9906865, 50.3765987 ], [ -2.2741699, 50.208549 ] ] } },
{ "type": "Feature", "properties": { "Boundary_n": "B10", "ID": "BND033" }, "geometry": { "type": "LineString", "coordinates": [ [ -5.5618286, 51.2120454 ], [ -5.163491, 51.2168137 ], [ -5.1341983, 51.2162023 ], [ -5.1049214, 51.2155765 ], [ -5.0694168, 51.2150935 ], [ -5.0257462, 51.2160889 ], [ -4.9532553, 51.2203161 ], [ -4.8684439, 51.2260732 ], [ -4.7569813, 51.2362366 ], [ -4.661907, 51.2433721 ], [ -4.5687051, 51.2477865 ], [ -4.4693778, 51.2535491 ], [ -4.3307072, 51.2612218 ], [ -4.1881983, 51.2753412 ], [ -4.0599399, 51.286481 ], [ -3.9605833, 51.2957823 ], [ -3.8881022, 51.3033394 ], [ -3.7990034, 51.3136976 ], [ -3.6972716, 51.3228428 ], [ -3.5890895, 51.326743 ], [ -3.4807612, 51.3239985 ], [ -3.3891037, 51.3223097 ], [ -3.297434, 51.3218676 ], [ -3.2244895, 51.3198988 ], [ -3.1370237, 51.3101345 ], [ -3.0599963, 51.3028597 ], [ -2.9829833, 51.2968458 ], [ -2.8955237, 51.2934595 ], [ -2.7919473, 51.2899499 ], [ -2.7194252, 51.2862945 ], [ -2.7089928, 51.2863415 ], [ -2.6492164, 51.2800182 ], [ -2.599539, 51.2802015 ], [ -2.574453, 51.2776436 ], [ -2.5388241, 51.273779 ], [ -2.5012437, 51.2712219 ], [ -2.4534947, 51.2713007 ], [ -2.399303, 51.2713133 ], [ -2.3371001, 51.2726669 ], [ -2.277035, 51.276595 ], [ -2.187777, 51.2817386 ], [ -2.1296079, 51.2855521 ], [ -2.0423858, 51.2931797 ], [ -1.9656213, 51.3034241 ], [ -1.8347406, 51.3199505 ], [ -1.7369331, 51.3312491 ], [ -1.664063, 51.3413491 ], [ -1.589032, 51.3513975 ], [ -1.4950881, 51.3678868 ], [ -1.4239994, 51.3792758 ], [ -1.3278006, 51.3877813 ], [ -1.2231426, 51.3948642 ], [ -1.131187, 51.3940576 ], [ -1.0644639, 51.3907247 ], [ -1.0144747, 51.3850073 ], [ -0.9646934, 51.376576 ], [ -0.8986537, 51.3600477 ], [ -0.8244637, 51.3420876 ], [ -0.754664, 51.3215656 ], [ -0.711761, 51.3078923 ], [ -0.658612, 51.2889303 ], [ -0.6199935, 51.2740267 ], [ -0.5855549, 51.2604766 ], [ -0.5714179, 51.2537608 ], [ -0.5604464, 51.2471295 ], [ -0.5562718, 51.2444505 ], [ -0.5436751, 51.2390028 ], [ -0.5394943, 51.2376271 ], [ -0.5248961, 51.2321688 ], [ -0.5124919, 51.2293788 ], [ -0.5000651, 51.2278855 ], [ -0.4772898, 51.2249278 ], [ -0.456594, 51.2219987 ], [ -0.431673, 51.2202803 ], [ -0.4065906, 51.2198183 ], [ -0.3756576, 51.2193443 ], [ -0.3405782, 51.2187938 ], [ -0.2991523, 51.2207044 ], [ -0.2597877, 51.221324 ], [ -0.2203594, 51.2232209 ], [ -0.1829568, 51.2251312 ], [ -0.1498283, 51.2258342 ], [ -0.1207466, 51.2278886 ], [ -0.0875405, 51.2298679 ], [ -0.0604931, 51.233254 ], [ -0.0356219, 51.2340865 ], [ -0.0128816, 51.2336638 ], [ 0.014028, 51.2331393 ], [ 0.0429573, 51.2312638 ], [ 0.0718892, 51.2293743 ], [ 0.1007534, 51.2261849 ], [ 0.1296163, 51.2229765 ], [ 0.1479921, 51.2173974 ], [ 0.1684245, 51.2117768 ], [ 0.1907349, 51.2022055 ], [ 0.2108505, 51.1900609 ], [ 0.2268137, 51.1780145 ], [ 0.240561, 51.1634323 ], [ 0.2504187, 51.1541374 ], [ 0.2623176, 51.1448112 ], [ 0.2780488, 51.1302353 ], [ 0.3016329, 51.1090364 ], [ 0.3254421, 51.0930164 ], [ 0.349067, 51.0744242 ], [ 0.36861, 51.0572532 ], [ 0.3862236, 51.0427166 ], [ 0.4117613, 51.0241438 ], [ 0.4352794, 51.0069159 ], [ 0.4570281, 50.9948704 ], [ 0.4786774, 50.9815505 ], [ 0.498321, 50.9695676 ], [ 0.5199657, 50.957546 ], [ 0.5356923, 50.9482152 ], [ 0.5535156, 50.9401151 ], [ 0.5712271, 50.9307453 ], [ 0.6008046, 50.9172735 ], [ 0.6261942, 50.9026342 ], [ 0.6494754, 50.8867622 ], [ 0.6749571, 50.8733838 ], [ 0.6979641, 50.8549956 ], [ 0.7264911, 50.8301485 ], [ 0.7547469, 50.8028082 ], [ 0.78826, 50.7665242 ], [ 0.8180339, 50.7354526 ], [ 0.8292813, 50.7250692 ], [ 0.8630587, 50.6952086 ] ] } },
{ "type": "Feature", "properties": { "Boundary_n": "LE1", "ID": "BND008" }, "geometry": { "type": "LineString", "coordinates": [ [ 2.7410889, 52.3521186 ], [ 2.7313079, 52.3304741 ], [ 2.7216948, 52.3166895 ], [ 2.7044294, 52.2890478 ], [ 2.6936025, 52.2658492 ], [ 2.6829432, 52.2438389 ], [ 2.6745524, 52.2241029 ], [ 2.6648492, 52.2091621 ], [ 2.6561731, 52.187079 ], [ 2.6521135, 52.1707022 ], [ 2.6501432, 52.1554198 ], [ 2.644179, 52.1391392 ], [ 2.6383704, 52.1240374 ], [ 2.6275285, 52.0997075 ], [ 2.6164084, 52.073038 ], [ 2.603246, 52.0452868 ], [ 2.5880505, 52.0164543 ], [ 2.5716981, 51.9935859 ], [ 2.5518482, 51.973244 ], [ 2.5311504, 51.9458548 ], [ 2.5148862, 51.9229921 ], [ 2.5048037, 51.9033906 ], [ 2.4967851, 51.8848779 ], [ 2.4904001, 51.8639312 ], [ 2.4763983, 51.8433319 ], [ 2.4670759, 51.8296009 ], [ 2.4577574, 51.8158678 ], [ 2.4503544, 51.8020509 ], [ 2.4452902, 51.791665 ], [ 2.4358551, 51.7767594 ], [ 2.4239734, 51.7572489 ], [ 2.4160457, 51.7387357 ], [ 2.4063629, 51.7214841 ], [ 2.3953479, 51.7090113 ], [ 2.3862368, 51.6964508 ], [ 2.3755062, 51.6863278 ], [ 2.364923, 51.6773689 ], [ 2.3463481, 51.6652373 ], [ 2.3302257, 51.6577115 ], [ 2.3137104, 51.6466645 ], [ 2.2974697, 51.6379608 ], [ 2.2814983, 51.6316016 ], [ 2.2635187, 51.6241507 ], [ 2.2478359, 51.6201349 ], [ 2.2320231, 51.6149424 ], [ 2.2183783, 51.6120165 ], [ 2.2067462, 51.6101647 ], [ 2.1913496, 51.6084953 ], [ 2.1740584, 51.6069 ], [ 2.1645925, 51.6073157 ], [ 2.1513481, 51.6078971 ], [ 2.139996, 51.6083941 ], [ 2.1251218, 51.6114009 ], [ 2.1047041, 51.615827 ], [ 2.0899575, 51.6200004 ], [ 2.0752097, 51.6241733 ], [ 2.0603325, 51.6271709 ], [ 2.0457136, 51.6325124 ], [ 2.0368971, 51.6387844 ], [ 2.0242924, 51.6452129 ], [ 2.0081569, 51.6541437 ], [ 1.9995826, 51.6627559 ], [ 1.9896252, 51.6761372 ], [ 1.9802996, 51.6953798 ], [ 1.9686935, 51.7111804 ], [ 1.9568305, 51.7246346 ], [ 1.9448312, 51.7369158 ], [ 1.9362405, 51.7455169 ], [ 1.9241105, 51.7566161 ], [ 1.9099526, 51.7666227 ], [ 1.8956639, 51.7754566 ], [ 1.8792245, 51.7820178 ], [ 1.8610098, 51.789827 ], [ 1.8350757, 51.796768 ], [ 1.810667, 51.8001118 ], [ 1.7916971, 51.8008754 ], [ 1.7724877, 51.7992886 ], [ 1.7468607, 51.7908932 ], [ 1.7251545, 51.7835145 ], [ 1.7132967, 51.7792735 ], [ 1.699186, 51.7715909 ], [ 1.6790372, 51.7606133 ], [ 1.6547531, 51.7462621 ], [ 1.6345093, 51.7341045 ], [ 1.6162861, 51.7230404 ], [ 1.5979584, 51.710802 ], [ 1.5775123, 51.6962869 ], [ 1.5593226, 51.6852154 ], [ 1.5430305, 51.6740667 ], [ 1.5288689, 51.6651892 ], [ 1.5127075, 51.6552091 ], [ 1.498328, 51.6439816 ], [ 1.4722769, 51.6296597 ], [ 1.450701, 51.6222278 ], [ 1.4274693, 51.6172077 ], [ 1.4064684, 51.6156323 ], [ 1.3855814, 51.6152264 ], [ 1.3648055, 51.6159891 ], [ 1.3421402, 51.6168168 ], [ 1.321363, 51.6175722 ], [ 1.2989152, 51.6207369 ], [ 1.2823519, 51.6260431 ], [ 1.2637853, 51.6302367 ], [ 1.2418691, 51.6392559 ], [ 1.2147055, 51.6531644 ], [ 1.1874158, 51.6658918 ], [ 1.1620044, 51.6785487 ], [ 1.1310015, 51.6925656 ], [ 1.1074482, 51.7051431 ], [ 1.0857754, 51.7176522 ], [ 1.066087, 51.7312646 ], [ 1.0482816, 51.7448118 ], [ 1.0287757, 51.7607663 ], [ 1.0129549, 51.7754258 ], [ 0.9986896, 51.7864809 ], [ 0.9840194, 51.7928528 ], [ 0.9711398, 51.7979866 ], [ 0.9488651, 51.8046046 ], [ 0.9300782, 51.8075747 ], [ 0.9168905, 51.8091842 ], [ 0.8999078, 51.8109147 ], [ 0.8866198, 51.8113462 ], [ 0.8509164, 51.8124184 ], [ 0.8179674, 51.8098258 ], [ 0.7868156, 51.8053808 ], [ 0.7568619, 51.8001946 ], [ 0.7299036, 51.7931551 ], [ 0.7029453, 51.7827791 ], [ 0.6610101, 51.7698057 ], [ 0.6160796, 51.758312 ], [ 0.5651583, 51.7501533 ], [ 0.5238223, 51.7475571 ], [ 0.4818871, 51.7542328 ], [ 0.4489381, 51.760166 ], [ 0.41539, 51.7735128 ], [ 0.3854363, 51.7853733 ], [ 0.3608743, 51.801306 ], [ 0.3174231, 51.8260256 ], [ 0.2864678, 51.8410492 ], [ 0.2811032, 51.8458972 ], [ 0.2644205, 51.8522286 ], [ 0.2459222, 51.8597798 ], [ 0.2274204, 51.8673277 ], [ 0.2070225, 51.8749248 ], [ 0.1847141, 51.8825682 ], [ 0.1565995, 51.8891829 ], [ 0.1283196, 51.893443 ], [ 0.0980654, 51.896574 ], [ 0.0563204, 51.898813 ], [ 0.0163969, 51.8998163 ], [ -0.0178987, 51.8994925 ], [ -0.0561465, 51.8969052 ], [ -0.0867158, 51.895297 ], [ -0.1231356, 51.8914701 ], [ -0.1575862, 51.8887612 ], [ -0.1958338, 51.8861291 ], [ -0.24938, 51.881483 ], [ -0.3124805, 51.8770263 ], [ -0.3546149, 51.8720795 ], [ -0.3834631, 51.8668316 ], [ -0.4142024, 51.8616174 ], [ -0.4584523, 51.8531528 ], [ -0.4890949, 51.8490926 ], [ -0.5428942, 51.8384477 ], [ -0.5948112, 51.8312456 ], [ -0.633237, 51.8249439 ], [ -0.6698442, 51.8185851 ], [ -0.689195, 51.8130714 ], [ -0.7046544, 51.8086593 ], [ -0.7338526, 51.7950965 ], [ -0.7534331, 51.7848715 ], [ -0.7691568, 51.7745761 ], [ -0.7829703, 51.7642434 ], [ -0.7949323, 51.7527007 ], [ -0.804965, 51.7399598 ], [ -0.8170909, 51.7248882 ], [ -0.8293632, 51.7097853 ], [ -0.8377909, 51.6911304 ], [ -0.8460266, 51.6748391 ], [ -0.8508397, 51.6525822 ], [ -0.8539669, 51.6290779 ], [ -0.8548376, 51.6137504 ], [ -0.859559, 51.5926748 ], [ -0.8602467, 51.5797114 ], [ -0.8570768, 51.5690227 ], [ -0.8537047, 51.5618722 ], [ -0.8434964, 51.5364726 ], [ -0.840082, 51.5269791 ], [ -0.8352725, 51.5056881 ], [ -0.8317526, 51.4997401 ], [ -0.8303618, 51.489129 ], [ -0.828861, 51.4808682 ], [ -0.82725, 51.4749577 ], [ -0.8238009, 51.467839 ], [ -0.8222341, 51.4607516 ], [ -0.8205646, 51.4560154 ], [ -0.8170885, 51.4488889 ], [ -0.8155574, 51.4394358 ], [ -0.812302, 51.4276109 ], [ -0.8089871, 51.4169602 ], [ -0.805844, 51.4039687 ], [ -0.8008418, 51.3897632 ], [ -0.7900985, 51.3754452 ], [ -0.7795128, 51.3599618 ], [ -0.7710301, 51.340994 ], [ -0.762492, 51.3220197 ], [ -0.753858, 51.3053965 ], [ -0.7451727, 51.2899475 ], [ -0.7384875, 51.2721851 ], [ -0.7317528, 51.2555976 ], [ -0.724978, 51.240187 ], [ -0.7180963, 51.2259554 ], [ -0.7132616, 51.210574 ], [ -0.7067149, 51.1927987 ], [ -0.6999457, 51.1773849 ], [ -0.6969336, 51.1620431 ], [ -0.6881976, 51.1466195 ], [ -0.6812471, 51.1347398 ], [ -0.6725772, 51.1216267 ], [ -0.6678014, 51.1050682 ], [ -0.6629914, 51.089676 ], [ -0.6581249, 51.0754578 ], [ -0.6552468, 51.0589246 ], [ -0.6540751, 51.0459457 ], [ -0.6507215, 51.0388107 ], [ -0.651101, 51.0317504 ], [ -0.6516962, 51.019995 ], [ -0.6387607, 50.9808977 ], [ -0.6318883, 50.892616 ], [ -0.6367106, 50.8418248 ], [ -0.6470988, 50.7865606 ], [ -0.6534236, 50.7371183 ], [ -0.6988283, 50.6162511 ] ] } },
{ "type": "Feature", "properties": { "Boundary_n": "B1", "ID": "BND034" }, "geometry": { "type": "LineString", "coordinates": [ [ -6.9628501, 56.9175851 ], [ -6.730023, 56.910458 ], [ -6.5233074, 56.910458 ], [ -6.3100638, 56.906894 ], [ -5.8966325, 56.90927 ], [ -5.5027848, 56.90927 ], [ -5.2960692, 56.9152096 ], [ -5.1045852, 56.9282732 ], [ -4.9609722, 56.9401452 ], [ -4.8505426, 56.9570563 ], [ -4.8013116, 56.9677331 ], [ -4.7580645, 56.9795926 ], [ -4.6982258, 56.9991525 ], [ -4.6318592, 57.0198866 ], [ -4.499126, 57.0613202 ], [ -4.4384712, 57.078472 ], [ -4.353065, 57.0976844 ], [ -4.1901405, 57.1192495 ], [ -3.9997445, 57.1499508 ], [ -3.783237, 57.1847542 ], [ -3.7133345, 57.198018 ], [ -3.6494158, 57.2118663 ], [ -3.5145067, 57.2477885 ], [ -3.3893893, 57.2895557 ], [ -3.2675359, 57.3406706 ], [ -3.1380666, 57.4005079 ], [ -3.0183891, 57.4538098 ], [ -2.9707901, 57.4756061 ], [ -2.9248231, 57.4941739 ], [ -2.8878319, 57.5048424 ], [ -2.8508406, 57.5134627 ], [ -2.6669725, 57.5479233 ], [ -2.6000619, 57.5628072 ], [ -2.5375032, 57.5788516 ], [ -2.4885443, 57.5960551 ], [ -2.4472011, 57.6138332 ], [ -2.4145618, 57.6313113 ], [ -2.3873624, 57.6511098 ], [ -2.3628829, 57.6793329 ], [ -2.3471072, 57.7081154 ], [ -2.3286116, 57.7719946 ], [ -2.3046761, 57.8965239 ], [ -2.2883565, 57.9531433 ], [ -2.264421, 58.0090972 ], [ -2.2361336, 58.0407848 ], [ -2.1991424, 58.0707182 ], [ -2.1523593, 58.1012014 ], [ -2.0946966, 58.1236158 ], [ -1.9815469, 58.1609419 ], [ -1.8042067, 58.202242 ], [ -1.6986729, 58.210267 ] ] } }
]
}
